COMMENT,ORIGINATOR,NORAD_CAT_ID,OBJECT_NAME,OBJECT_TYPE,CLASSIFICATION_TYPE,INTLDES,EPOCH,EPOCH_MICROSECONDS,MEAN_MOTION,ECCENTRICITY,INCLINATION,RA_OF_ASC_NODE,ARG_OF_PERICENTER,MEAN_ANOMALY,EPHEMERIS_TYPE,ELEMENT_SET_NO,REV_AT_EPOCH,BSTAR,MEAN_MOTION_DOT,MEAN_MOTION_DDOT,FILE,TLE_LINE0,TLE_LINE1,TLE_LINE2,OBJECT_ID,OBJECT_NUMBER,SEMIMAJOR_AXIS,PERIOD,APOGEE,PERIGEE,DECAYED
"GENERATED VIA SPACETRACK.ORG API","18 SPCS","55100","SPACEBEE-158","PAYLOAD","U","23001CV","2023-05-30 16:16:05","664576","15.19377343","0.0016785","97.4783","210.9452","68.6439","291.6585","0","999","2244","0.00064611","0.00013664","0","3921192","0 SPACEBEE-158","1 55100U 23001CV  23150.67784334  .00013664  00000-0  64611-3 0  9991","2 55100  97.4783 210.9452 0016785  68.6439 291.6585 15.19377343 22448","2023-001CV","55100","6885.858","94.776","519.281","496.165","0"
"GENERATED VIA SPACETRACK.ORG API","18 SPCS","55100","SPACEBEE-158","PAYLOAD","U","23001CV","2023-05-31 01:45:06","433632","15.19390853","0.001672","97.4783","211.3365","67.3612","292.9389","0","999","2250","0.00068997","0.00014603","0","3921363","0 SPACEBEE-158","1 55100U 23001CV  23151.07299113  .00014603  00000-0  68997-3 0  9997","2 55100  97.4783 211.3365 0016720  67.3612 292.9389 15.19390853 22508","2023-001CV","55100","6885.817","94.775","519.196","496.169","0"
"GENERATED VIA SPACETRACK.ORG API","18 SPCS","55100","SPACEBEE-158","PAYLOAD","U","23001CV","2023-05-31 03:19:56","505216","15.19394924","0.0016741","97.4784","211.4015","67.0707","293.2293","0","999","2251","0.00073809","0.0001563","0","3921767","0 SPACEBEE-158","1 55100U 23001CV  23151.13884844  .00015630  00000-0  73809-3 0  9994","2 55100  97.4784 211.4015 0016741  67.0707 293.2293 15.19394924 22519","2023-001CV","55100","6885.805","94.775","519.198","496.143","0"
"GENERATED VIA SPACETRACK.ORG API","18 SPCS","55100","SPACEBEE-158","PAYLOAD","U","23001CV","2023-05-31 17:33:27","6912","15.19416283","0.0016638","97.478","211.9887","65.1298","295.1664","0","999","2260","0.00082405","0.00017473","0","3922037","0 SPACEBEE-158","1 55100U 23001CV  23151.73156258  .00017473  00000-0  82405-3 0  9990","2 55100  97.4780 211.9887 0016638  65.1298 295.1664 15.19416283 22602","2023-001CV","55100","6885.741","94.773","519.062","496.149","0"
"GENERATED VIA SPACETRACK.ORG API","18 SPCS","55100","SPACEBEE-158","PAYLOAD","U","23001CV","2023-06-01 03:02:27","15648","15.19427851","0.0016603","97.4783","212.3796","63.9128","296.3813","0","999","2266","0.00077836","0.00016504","0","3922252","0 SPACEBEE-158","1 55100U 23001CV  23152.12670157  .00016504  00000-0  77836-3 0  9999","2 55100  97.4783 212.3796 0016603  63.9128 296.3813 15.19427851 22667","2023-001CV","55100","6885.706","94.773","519.003","496.138","0"
"GENERATED VIA SPACETRACK.ORG API","18 SPCS","55100","SPACEBEE-158","PAYLOAD","U","23001CV","2023-06-01 03:02:27","15648","15.19427851","0.0016603","97.4783","212.3796","63.9128","296.3813","0","999","2266","0.00077836","0.00016504","0","3922365","0 SPACEBEE-158","1 55100U 23001CV  23152.12670157  .00016504  00000-0  77836-3 0  9999","2 55100  97.4783 212.3796 0016603  63.9128 296.3813 15.19427851 22667","2023-001CV","55100","6885.706","94.773","519.003","496.138","0"
"GENERATED VIA SPACETRACK.ORG API","18 SPCS","55100","SPACEBEE-158","PAYLOAD","U","23001CV","2023-06-02 02:44:55","832640","15.19458425","0.0016541","97.4784","213.358","60.6175","299.6709","0","999","2281","0.00077673","0.00016483","0","3923342","0 SPACEBEE-158","1 55100U 23001CV  23153.11453510  .00016483  00000-0  77673-3 0  9996","2 55100  97.4784 213.3580 0016541  60.6175 299.6709 15.19458425 22815","2023-001CV","55100","6885.613","94.771","518.868","496.089","0"
"GENERATED VIA SPACETRACK.ORG API","18 SPCS","55100","SPACEBEE-158","PAYLOAD","U","23001CV","2023-06-02 16:58:24","137184","15.19480146","0.0016506","97.4785","213.9446","58.6086","301.676","0","999","2290","0.00080408","0.00017078","0","3923490","0 SPACEBEE-158","1 55100U 23001CV  23153.70722381  .00017078  00000-0  80408-3 0  9997","2 55100  97.4785 213.9446 0016506  58.6086 301.6760 15.19480146 22908","2023-001CV","55100","6885.548","94.769","518.778","496.047","0"
"GENERATED VIA SPACETRACK.ORG API","18 SPCS","55100","SPACEBEE-158","PAYLOAD","U","23001CV","2023-06-02 16:58:24","137184","15.19480146","0.0016506","97.4785","213.9446","58.6086","301.676","0","999","2290","0.00080408","0.00017078","0","3923570","0 SPACEBEE-158","1 55100U 23001CV  23153.70722381  .00017078  00000-0  80408-3 0  9997","2 55100  97.4785 213.9446 0016506  58.6086 301.6760 15.19480146 22908","2023-001CV","55100","6885.548","94.769","518.778","496.047","0"
"GENERATED VIA SPACETRACK.ORG API","18 SPCS","55100","SPACEBEE-158","PAYLOAD","U","23001CV","2023-06-03 04:02:12","576768","15.19488674","0.0016615","97.4783","214.4016","57.3774","302.9062","0","999","2297","0.00063508","0.00013471","0","3924076","0 SPACEBEE-158","1 55100U 23001CV  23154.16820112  .00013471  00000-0  63508-3 0  9994","2 55100  97.4783 214.4016 0016615  57.3774 302.9062 15.19488674 22976","2023-001CV","55100","6885.522","94.769","518.827","495.947","0"
"GENERATED VIA SPACETRACK.ORG API","18 SPCS","55100","SPACEBEE-158","PAYLOAD","U","23001CV","2023-06-03 21:25:19","197120","15.19512675","0.0016489","97.478","215.1194","55.0355","305.2425","0","999","2308","0.00070001","0.00014868","0","3924324","0 SPACEBEE-158","1 55100U 23001CV  23154.89258330  .00014868  00000-0  70001-3 0  9998","2 55100  97.4780 215.1194 0016489  55.0355 305.2425 15.19512675 23088","2023-001CV","55100","6885.449","94.767","518.668","495.961","0"
"GENERATED VIA SPACETRACK.ORG API","18 SPCS","55100","SPACEBEE-158","PAYLOAD","U","23001CV","2023-06-04 02:09:48","76992","15.19520537","0.0016429","97.478","215.3149","54.233","306.0429","0","999","2311","0.00073738","0.0001567","0","3924507","0 SPACEBEE-158","1 55100U 23001CV  23155.09013978  .00015670  00000-0  73738-3 0  9990","2 55100  97.4780 215.3149 0016429  54.2330 306.0429 15.19520537 23111","2023-001CV","55100","6885.426","94.767","518.603","495.979","0"
"GENERATED VIA SPACETRACK.ORG API","18 SPCS","55100","SPACEBEE-158","PAYLOAD","U","23001CV","2023-06-04 03:44:37","674240","15.19521986","0.0016402","97.4781","215.3802","54.0069","306.2683","0","999","2312","0.00069409","0.00014745","0","3924842","0 SPACEBEE-158","1 55100U 23001CV  23155.15599160  .00014745  00000-0  69409-3 0  9991","2 55100  97.4781 215.3802 0016402  54.0069 306.2683 15.19521986 23120","2023-001CV","55100","6885.421","94.767","518.580","495.993","0"
"GENERATED VIA SPACETRACK.ORG API","18 SPCS","55100","SPACEBEE-158","PAYLOAD","U","23001CV","2023-06-04 21:07:43","32288","15.19543846","0.0016345","97.4776","216.0978","51.5946","308.6753","0","999","2323","0.00071036","0.00015102","0","3925173","0 SPACEBEE-158","1 55100U 23001CV  23155.88035917  .00015102  00000-0  71036-3 0  9993","2 55100  97.4776 216.0978 0016345  51.5946 308.6753 15.19543846 23233","2023-001CV","55100","6885.355","94.765","518.474","495.966","0"
"GENERATED VIA SPACETRACK.ORG API","18 SPCS","55100","SPACEBEE-158","PAYLOAD","U","23001CV","2023-06-05 03:27:01","100736","15.19552449","0.0016284","97.4774","216.3588","50.7384","309.5292","0","999","2327","0.00071572","0.0001522","0","3925368","0 SPACEBEE-158","1 55100U 23001CV  23156.14376274  .00015220  00000-0  71572-3 0  9993","2 55100  97.4774 216.3588 0016284  50.7384 309.5292 15.19552449 23271","2023-001CV","55100","6885.329","94.765","518.406","495.982","0"
"GENERATED VIA SPACETRACK.ORG API","18 SPCS","55100","SPACEBEE-158","PAYLOAD","U","23001CV","2023-06-05 17:40:26","525568","15.19566539","0.0016208","97.4771","216.946","48.6455","311.617","0","999","2336","0.00069147","0.00014707","0","3925751","0 SPACEBEE-158","1 55100U 23001CV  23156.73641812  .00014707  00000-0  69147-3 0  9995","2 55100  97.4771 216.9460 0016208  48.6455 311.6170 15.19566539 23368","2023-001CV","55100","6885.287","94.764","518.311","495.992","0"
"GENERATED VIA SPACETRACK.ORG API","18 SPCS","55100","SPACEBEE-158","PAYLOAD","U","23001CV","2023-06-06 03:09:23","194080","15.19575106","0.0016099","97.477","217.3376","47.3074","312.9513","0","999","2342","0.00065092","0.00013841","0","3926215","0 SPACEBEE-158","1 55100U 23001CV  23157.13151845  .00013841  00000-0  65092-3 0  9995","2 55100  97.4770 217.3376 0016099  47.3074 312.9513 15.19575106 23421","2023-001CV","55100","6885.261","94.763","518.210","496.041","0"
"GENERATED VIA SPACETRACK.ORG API","18 SPCS","55100","SPACEBEE-158","PAYLOAD","U","23001CV","2023-06-06 03:09:23","194080","15.19575106","0.0016099","97.477","217.3376","47.3074","312.9513","0","999","2342","0.00065092","0.00013841","0","3926325","0 SPACEBEE-158","1 55100U 23001CV  23157.13151845  .00013841  00000-0  65092-3 0  9995","2 55100  97.4770 217.3376 0016099  47.3074 312.9513 15.19575106 23421","2023-001CV","55100","6885.261","94.763","518.210","496.041","0"
"GENERATED VIA SPACETRACK.ORG API","18 SPCS","55100","SPACEBEE-158","PAYLOAD","U","23001CV","2023-06-06 17:22:47","676288","15.19592953","0.0016045","97.4769","217.9247","45.2209","315.0328","0","999","2351","0.00071889","0.00015304","0","3926571","0 SPACEBEE-158","1 55100U 23001CV  23157.72416292  .00015304  00000-0  71889-3 0  9997","2 55100  97.4769 217.9247 0016045  45.2209 315.0328 15.19592953 23517","2023-001CV","55100","6885.207","94.762","518.119","496.025","0"
"GENERATED VIA SPACETRACK.ORG API","18 SPCS","55100","SPACEBEE-158","PAYLOAD","U","23001CV","2023-06-07 02:51:43","569792","15.19607399","0.0015929","97.4768","218.3163","43.9468","316.303","0","999","2357","0.00076918","0.00016388","0","3927174","0 SPACEBEE-158","1 55100U 23001CV  23158.11925428  .00016388  00000-0  76918-3 0  9998","2 55100  97.4768 218.3163 0015929  43.9468 316.3030 15.19607399 23571","2023-001CV","55100","6885.163","94.761","517.996","496.061","0"
